STARLINK-36566          
1 67551U 26014V   26042.91668981  .00061963  00000+0  41434-3 0  9992
2 67551  97.2854 286.5710 0001276 105.2119 336.7777 15.75131050  4546
STARLINK-36567          
1 67552U 26014W   26042.91071647  .00177418  00000+0  11635-2 0  9992
2 67552  97.2860 286.5408 0000885  93.4106 266.7260 15.75236186  4508
STARLINK-36569          
1 67553U 26014X   26042.91668981 -.00087624  00000+0 -46082-3 0  9992
2 67553  97.2860 286.5950 0001016 106.0761  52.3690 15.80840165  4540
STARLINK-36395          
1 67554U 26014Y   26042.90507138  .00151705  00000+0  99844-3 0  9992
2 67554  97.2858 286.5493 0001448  93.0927 267.0504 15.75226196  4509
STARLINK-36559          
1 67555U 26014Z   26042.90648291  .00143475  00000+0  94531-3 0  9992
2 67555  97.2857 286.5469 0001568  89.2410 270.9035 15.75224175  4506
MR-1                    
1 67556U 26015A   26042.67490208  .00000011  00000+0 -13171-5 0  9993
2 67556  88.9974 281.3071 0005128  85.1008 275.0729 13.52685927  2749
MR-2                    
1 67557U 26015B   26042.67527019  .00000027  00000+0  23194-4 0  9996
2 67557  88.9974 281.3073 0005181  84.1793 275.9950 13.52661011  2744
ELECTRON R/B            
1 67558U 26015C   26042.94298309  .02416912 -10340-5  15584-2 0  9997
2 67558  88.9918 280.6795 0434249 194.5225 164.3229 15.34500743  3087
ELECTRON KICK STAGE R/B 
1 67559U 26015D   26042.95330174  .00063735  19799-6  10776-2 0  9990
2 67559  89.0513 280.9462 0529753 263.5746  90.4918 14.67874567  3015
STARLINK-36426          
1 67560U 26014AA  26042.82444688  .00148014  00000+0  75800-3 0  9995
2 67560  97.2848 286.5063 0001594 120.3188 239.8238 15.80886100  4495
STARLINK-36621          
1 67561U 26016A   26042.91668981  .00010870  00000+0  73701-4 0  9999
2 67561  97.2836 102.0518 0001200  89.1086 170.2180 15.75175449  3903
STARLINK-36398          
1 67562U 26016B   26042.91668981 -.00114474  00000+0 -77536-3 0  9996
2 67562  97.2841 102.0319 0001357  96.1951 121.1283 15.75236317  3889
