CCSDS_OMM_VERS = 2.0
CREATION_DATE  = 
ORIGINATOR     = 

OBJECT_NAME    = STARLINK-36566
OBJECT_ID      = 2026-014V
CENTER_NAME    = EARTH
REF_FRAME      = TEME
TIME_SYSTEM    = UTC
MEAN_ELEMENT_THEORY = SGP/SGP4

EPOCH          = 2026-02-11T22:00:01.999584
MEAN_MOTION    = 15.75131050
ECCENTRICITY   = .0001276
INCLINATION    = 97.2854
RA_OF_ASC_NODE = 286.5710
ARG_OF_PERICENTER = 105.2119
MEAN_ANOMALY   = 336.7777

EPHEMERIS_TYPE = 0
CLASSIFICATION_TYPE = U
NORAD_CAT_ID   = 67551
ELEMENT_SET_NO = 999
REV_AT_EPOCH   = 454
BSTAR          = .41434223E-3
MEAN_MOTION_DOT = .61963E-3
MEAN_MOTION_DDOT = 0

CCSDS_OMM_VERS = 2.0
CREATION_DATE  = 
ORIGINATOR     = 

OBJECT_NAME    = STARLINK-36567
OBJECT_ID      = 2026-014W
CENTER_NAME    = EARTH
REF_FRAME      = TEME
TIME_SYSTEM    = UTC
MEAN_ELEMENT_THEORY = SGP/SGP4

EPOCH          = 2026-02-11T21:51:25.903008
MEAN_MOTION    = 15.75236186
ECCENTRICITY   = .00008856
INCLINATION    = 97.2860
RA_OF_ASC_NODE = 286.5408
ARG_OF_PERICENTER = 93.4106
MEAN_ANOMALY   = 266.7260

EPHEMERIS_TYPE = 0
CLASSIFICATION_TYPE = U
NORAD_CAT_ID   = 67552
ELEMENT_SET_NO = 999
REV_AT_EPOCH   = 450
BSTAR          = .11634919E-2
MEAN_MOTION_DOT = .177418E-2
MEAN_MOTION_DDOT = 0

CCSDS_OMM_VERS = 2.0
CREATION_DATE  = 
ORIGINATOR     = 

OBJECT_NAME    = STARLINK-36569
OBJECT_ID      = 2026-014X
CENTER_NAME    = EARTH
REF_FRAME      = TEME
TIME_SYSTEM    = UTC
MEAN_ELEMENT_THEORY = SGP/SGP4

EPOCH          = 2026-02-11T22:00:01.999584
MEAN_MOTION    = 15.80840165
ECCENTRICITY   = .00010164
INCLINATION    = 97.2860
RA_OF_ASC_NODE = 286.5950
ARG_OF_PERICENTER = 106.0761
MEAN_ANOMALY   = 52.3690

EPHEMERIS_TYPE = 0
CLASSIFICATION_TYPE = U
NORAD_CAT_ID   = 67553
ELEMENT_SET_NO = 999
REV_AT_EPOCH   = 454
BSTAR          = -.46081903E-3
MEAN_MOTION_DOT = -.87624E-3
MEAN_MOTION_DDOT = 0

CCSDS_OMM_VERS = 2.0
CREATION_DATE  = 
ORIGINATOR     = 

OBJECT_NAME    = STARLINK-36395
OBJECT_ID      = 2026-014Y
CENTER_NAME    = EARTH
REF_FRAME      = TEME
TIME_SYSTEM    = UTC
MEAN_ELEMENT_THEORY = SGP/SGP4

EPOCH          = 2026-02-11T21:43:18.167232
MEAN_MOTION    = 15.75226196
ECCENTRICITY   = .00014481
INCLINATION    = 97.2858
RA_OF_ASC_NODE = 286.5493
ARG_OF_PERICENTER = 93.0927
MEAN_ANOMALY   = 267.0504

EPHEMERIS_TYPE = 0
CLASSIFICATION_TYPE = U
NORAD_CAT_ID   = 67554
ELEMENT_SET_NO = 999
REV_AT_EPOCH   = 450
BSTAR          = .99843815E-3
MEAN_MOTION_DOT = .151705E-2
MEAN_MOTION_DDOT = 0

CCSDS_OMM_VERS = 2.0
CREATION_DATE  = 
ORIGINATOR     = 

OBJECT_NAME    = STARLINK-36559
OBJECT_ID      = 2026-014Z
CENTER_NAME    = EARTH
REF_FRAME      = TEME
TIME_SYSTEM    = UTC
MEAN_ELEMENT_THEORY = SGP/SGP4

EPOCH          = 2026-02-11T21:45:20.123424
MEAN_MOTION    = 15.75224175
ECCENTRICITY   = .00015684
INCLINATION    = 97.2857
RA_OF_ASC_NODE = 286.5469
ARG_OF_PERICENTER = 89.2410
MEAN_ANOMALY   = 270.9035

EPHEMERIS_TYPE = 0
CLASSIFICATION_TYPE = U
NORAD_CAT_ID   = 67555
ELEMENT_SET_NO = 999
REV_AT_EPOCH   = 450
BSTAR          = .94530991E-3
MEAN_MOTION_DOT = .143475E-2
MEAN_MOTION_DDOT = 0

CCSDS_OMM_VERS = 2.0
CREATION_DATE  = 
ORIGINATOR     = 

OBJECT_NAME    = MR-1
OBJECT_ID      = 2026-015A
CENTER_NAME    = EARTH
REF_FRAME      = TEME
TIME_SYSTEM    = UTC
MEAN_ELEMENT_THEORY = SGP/SGP4

EPOCH          = 2026-02-11T16:11:51.539712
MEAN_MOTION    = 13.52685927
ECCENTRICITY   = .00051286
INCLINATION    = 88.9974
RA_OF_ASC_NODE = 281.3071
ARG_OF_PERICENTER = 85.1008
MEAN_ANOMALY   = 275.0729

EPHEMERIS_TYPE = 0
CLASSIFICATION_TYPE = U
NORAD_CAT_ID   = 67556
ELEMENT_SET_NO = 999
REV_AT_EPOCH   = 274
BSTAR          = -.1317065E-5
MEAN_MOTION_DOT = .11E-6
MEAN_MOTION_DDOT = 0

CCSDS_OMM_VERS = 2.0
CREATION_DATE  = 
ORIGINATOR     = 

OBJECT_NAME    = MR-2
OBJECT_ID      = 2026-015B
CENTER_NAME    = EARTH
REF_FRAME      = TEME
TIME_SYSTEM    = UTC
MEAN_ELEMENT_THEORY = SGP/SGP4

EPOCH          = 2026-02-11T16:12:23.344416
MEAN_MOTION    = 13.52661011
ECCENTRICITY   = .00051813
INCLINATION    = 88.9974
RA_OF_ASC_NODE = 281.3073
ARG_OF_PERICENTER = 84.1793
MEAN_ANOMALY   = 275.9950

EPHEMERIS_TYPE = 0
CLASSIFICATION_TYPE = U
NORAD_CAT_ID   = 67557
ELEMENT_SET_NO = 999
REV_AT_EPOCH   = 274
BSTAR          = .23193604E-4
MEAN_MOTION_DOT = .27E-6
MEAN_MOTION_DDOT = 0

CCSDS_OMM_VERS = 2.0
CREATION_DATE  = 
ORIGINATOR     = 

OBJECT_NAME    = ELECTRON R/B
OBJECT_ID      = 2026-015C
CENTER_NAME    = EARTH
REF_FRAME      = TEME
TIME_SYSTEM    = UTC
MEAN_ELEMENT_THEORY = SGP/SGP4

EPOCH          = 2026-02-11T22:37:53.738976
MEAN_MOTION    = 15.34500743
ECCENTRICITY   = .04342494
INCLINATION    = 88.9918
RA_OF_ASC_NODE = 280.6795
ARG_OF_PERICENTER = 194.5225
MEAN_ANOMALY   = 164.3229

EPHEMERIS_TYPE = 0
CLASSIFICATION_TYPE = U
NORAD_CAT_ID   = 67558
ELEMENT_SET_NO = 999
REV_AT_EPOCH   = 308
BSTAR          = .15583541E-2
MEAN_MOTION_DOT = .2416912E-1
MEAN_MOTION_DDOT = -.1034029E-5

CCSDS_OMM_VERS = 2.0
CREATION_DATE  = 
ORIGINATOR     = 

OBJECT_NAME    = ELECTRON KICK STAGE R/B
OBJECT_ID      = 2026-015D
CENTER_NAME    = EARTH
REF_FRAME      = TEME
TIME_SYSTEM    = UTC
MEAN_ELEMENT_THEORY = SGP/SGP4

EPOCH          = 2026-02-11T22:52:45.270336
MEAN_MOTION    = 14.67874567
ECCENTRICITY   = .05297538
INCLINATION    = 89.0513
RA_OF_ASC_NODE = 280.9462
ARG_OF_PERICENTER = 263.5746
MEAN_ANOMALY   = 90.4918

EPHEMERIS_TYPE = 0
CLASSIFICATION_TYPE = U
NORAD_CAT_ID   = 67559
ELEMENT_SET_NO = 999
REV_AT_EPOCH   = 301
BSTAR          = .10775791E-2
MEAN_MOTION_DOT = .63735E-3
MEAN_MOTION_DDOT = .197986E-6

CCSDS_OMM_VERS = 2.0
CREATION_DATE  = 
ORIGINATOR     = 

OBJECT_NAME    = STARLINK-36426
OBJECT_ID      = 2026-014AA
CENTER_NAME    = EARTH
REF_FRAME      = TEME
TIME_SYSTEM    = UTC
MEAN_ELEMENT_THEORY = SGP/SGP4

EPOCH          = 2026-02-11T19:47:12.210432
MEAN_MOTION    = 15.80886100
ECCENTRICITY   = .00015946
INCLINATION    = 97.2848
RA_OF_ASC_NODE = 286.5063
ARG_OF_PERICENTER = 120.3188
MEAN_ANOMALY   = 239.8238

EPHEMERIS_TYPE = 0
CLASSIFICATION_TYPE = U
NORAD_CAT_ID   = 67560
ELEMENT_SET_NO = 999
REV_AT_EPOCH   = 449
BSTAR          = .75799681E-3
MEAN_MOTION_DOT = .148014E-2
MEAN_MOTION_DDOT = 0

CCSDS_OMM_VERS = 2.0
CREATION_DATE  = 
ORIGINATOR     = 

OBJECT_NAME    = STARLINK-36621
OBJECT_ID      = 2026-016A
CENTER_NAME    = EARTH
REF_FRAME      = TEME
TIME_SYSTEM    = UTC
MEAN_ELEMENT_THEORY = SGP/SGP4

EPOCH          = 2026-02-11T22:00:01.999584
MEAN_MOTION    = 15.75175449
ECCENTRICITY   = .00012001
INCLINATION    = 97.2836
RA_OF_ASC_NODE = 102.0518
ARG_OF_PERICENTER = 89.1086
MEAN_ANOMALY   = 170.2180

EPHEMERIS_TYPE = 0
CLASSIFICATION_TYPE = U
NORAD_CAT_ID   = 67561
ELEMENT_SET_NO = 999
REV_AT_EPOCH   = 390
BSTAR          = .73701373E-4
MEAN_MOTION_DOT = .1087E-3
MEAN_MOTION_DDOT = 0

CCSDS_OMM_VERS = 2.0
CREATION_DATE  = 
ORIGINATOR     = 

OBJECT_NAME    = STARLINK-36398
OBJECT_ID      = 2026-016B
CENTER_NAME    = EARTH
REF_FRAME      = TEME
TIME_SYSTEM    = UTC
MEAN_ELEMENT_THEORY = SGP/SGP4

EPOCH          = 2026-02-11T22:00:01.999584
MEAN_MOTION    = 15.75236317
ECCENTRICITY   = .00013574
INCLINATION    = 97.2841
RA_OF_ASC_NODE = 102.0319
ARG_OF_PERICENTER = 96.1951
MEAN_ANOMALY   = 121.1283

EPHEMERIS_TYPE = 0
CLASSIFICATION_TYPE = U
NORAD_CAT_ID   = 67562
ELEMENT_SET_NO = 999
REV_AT_EPOCH   = 388
BSTAR          = -.77536266E-3
MEAN_MOTION_DOT = -.114474E-2
MEAN_MOTION_DDOT = 0

